MAROC-TUBSAT            
1 27004U 01056D   26168.97204574 -.00000040  00000+0  70107-5 0  9990
2 27004  99.8082 345.8463 0020354 139.2954  24.3997 13.70262480226299
METEOSAT-10 (MSG-3)     
1 38552U 12035B   26167.91989406 -.00000009  00000+0  00000+0 0  9990
2 38552   4.6715  61.0232 0001486 328.8582 206.8187  1.00276823 50856
METEOR-M 2              
1 40069U 14037A   26168.91989370  .00000024  00000+0  30058-4 0  9998
2 40069  98.5113 144.6325 0006721  42.5327 317.6370 14.21461300619423
METEOR-M2 2             
1 44387U 19038A   26168.94713403  .00000025  00000+0  30794-4 0  9994
2 44387  98.9141 156.2438 0002030  46.5969 313.5378 14.24366072361402
LUDI TANCE 1-01A (L-SA*)
1 51284U 22007A   26168.92062079  .00000481  00000+0  57722-4 0  9998
2 51284  97.8096 176.3300 0001597  89.1136 271.0264 14.88407620238589
LUDI TANCE 1-01B (L-SA*)
1 51822U 22018A   26168.95422788  .00000477  00000+0  57287-4 0  9999
2 51822  97.8103 176.3598 0001611  92.3785 267.7617 14.88419338233823
METEOR-M2 3             
1 57166U 23091A   26168.94161912 -.00000112  00000+0 -30099-4 0  9996
2 57166  98.6099 223.9043 0004346 153.7654 206.3746 14.24046746154623
LUDI TANCE-4 01A        
1 57624U 23120A   26168.10650138 -.00000176  00000+0  00000+0 0  9992
2 57624  15.1025 193.9642 0001162  44.3145 155.1098  1.00268813 10543
METEOR-M2 4             
1 59051U 24039A   26168.95719581  .00000012  00000+0  24841-4 0  9991
2 59051  98.7010 128.2455 0007336 158.8228 201.3255 14.22429630119379
LEGION 4                
1 60453U 24146B   26168.92475121  .00003663  00000+0  20047-3 0  9992
2 60453  45.0010 118.5095 0013696 312.3124  47.6594 15.16036201100988
